[{"OBJECT_NAME":"ONEWEB-0598","OBJECT_ID":"2023-004Q","EPOCH":"2026-04-05T05:17:35.526912","MEAN_MOTION":13.11416009,"ECCENTRICITY":0.0002375,"INCLINATION":87.8904,"RA_OF_ASC_NODE":35.5747,"ARG_OF_PERICENTER":69.421,"MEAN_ANOMALY":290.7172,"EPHEMERIS_TYPE":0,"CLASSIFICATION_TYPE":"U","NORAD_CAT_ID":55154,"ELEMENT_SET_NO":999,"REV_AT_EPOCH":15633,"BSTAR":0.00067101,"MEAN_MOTION_DOT":2.51e-06,"MEAN_MOTION_DDOT":0.0},{"OBJECT_NAME":"ONEWEB-0599","OBJECT_ID":"2023-004R","EPOCH":"2026-04-05T06:40:24.163680","MEAN_MOTION":13.1765116,"ECCENTRICITY":0.0002019,"INCLINATION":87.9179,"RA_OF_ASC_NODE":20.3446,"ARG_OF_PERICENTER":79.7794,"MEAN_ANOMALY":280.3565,"EPHEMERIS_TYPE":0,"CLASSIFICATION_TYPE":"U","NORAD_CAT_ID":55155,"ELEMENT_SET_NO":999,"REV_AT_EPOCH":15788,"BSTAR":0.00014112,"MEAN_MOTION_DOT":6.8e-07,"MEAN_MOTION_DDOT":0.0},{"OBJECT_NAME":"ONEWEB-0614","OBJECT_ID":"2023-004S","EPOCH":"2026-04-05T07:00:07.923168","MEAN_MOTION":13.11414934,"ECCENTRICITY":0.0001625,"INCLINATION":87.8904,"RA_OF_ASC_NODE":35.5685,"ARG_OF_PERICENTER":79.6138,"MEAN_ANOMALY":280.5173,"EPHEMERIS_TYPE":0,"CLASSIFICATION_TYPE":"U","NORAD_CAT_ID":55156,"ELEMENT_SET_NO":999,"REV_AT_EPOCH":15628,"BSTAR":0.0012361,"MEAN_MOTION_DOT":4.51e-06,"MEAN_MOTION_DDOT":0.0},{"OBJECT_NAME":"ONEWEB-0616","OBJECT_ID":"2023-004T","EPOCH":"2026-04-05T04:02:27.258720","MEAN_MOTION":13.17650611,"ECCENTRICITY":0.000264,"INCLINATION":87.9185,"RA_OF_ASC_NODE":20.369,"ARG_OF_PERICENTER":91.728,"MEAN_ANOMALY":268.4154,"EPHEMERIS_TYPE":0,"CLASSIFICATION_TYPE":"U","NORAD_CAT_ID":55157,"ELEMENT_SET_NO":999,"REV_AT_EPOCH":15808,"BSTAR":1.3099e-05,"MEAN_MOTION_DOT":1.8e-07,"MEAN_MOTION_DDOT":0.0},{"OBJECT_NAME":"ONEWEB-0617","OBJECT_ID":"2023-004U","EPOCH":"2026-04-05T06:43:03.342720","MEAN_MOTION":13.11417563,"ECCENTRICITY":0.0001452,"INCLINATION":87.8917,"RA_OF_ASC_NODE":35.5569,"ARG_OF_PERICENTER":74.0531,"MEAN_ANOMALY":286.0757,"EPHEMERIS_TYPE":0,"CLASSIFICATION_TYPE":"U","NORAD_CAT_ID":55158,"ELEMENT_SET_NO":999,"REV_AT_EPOCH":15630,"BSTAR":0.0015295,"MEAN_MOTION_DOT":5.55e-06,"MEAN_MOTION_DDOT":0.0},{"OBJECT_NAME":"ONEWEB-0618","OBJECT_ID":"2023-004V","EPOCH":"2026-04-05T07:08:10.238208","MEAN_MOTION":15.12465227,"ECCENTRICITY":0.0012198,"INCLINATION":86.914,"RA_OF_ASC_NODE":207.189,"ARG_OF_PERICENTER":193.216,"MEAN_ANOMALY":166.8762,"EPHEMERIS_TYPE":0,"CLASSIFICATION_TYPE":"U","NORAD_CAT_ID":55159,"ELEMENT_SET_NO":999,"REV_AT_EPOCH":17124,"BSTAR":0.0005493700000000001,"MEAN_MOTION_DOT":9.6e-05,"MEAN_MOTION_DDOT":0.0},{"OBJECT_NAME":"ONEWEB-0619","OBJECT_ID":"2023-004W","EPOCH":"2026-04-05T06:37:57.406368","MEAN_MOTION":13.176493,"ECCENTRICITY":0.0001638,"INCLINATION":87.9193,"RA_OF_ASC_NODE":20.322,"ARG_OF_PERICENTER":92.5386,"MEAN_ANOMALY":267.5933,"EPHEMERIS_TYPE":0,"CLASSIFICATION_TYPE":"U","NORAD_CAT_ID":55160,"ELEMENT_SET_NO":999,"REV_AT_EPOCH":15799,"BSTAR":-0.0008223000000000001,"MEAN_MOTION_DOT":-3.06e-06,"MEAN_MOTION_DDOT":0.0},{"OBJECT_NAME":"ONEWEB-0620","OBJECT_ID":"2023-004X","EPOCH":"2026-04-05T06:35:43.559808","MEAN_MOTION":13.11419059,"ECCENTRICITY":0.0001901,"INCLINATION":87.8906,"RA_OF_ASC_NODE":35.5713,"ARG_OF_PERICENTER":70.6537,"MEAN_ANOMALY":289.4797,"EPHEMERIS_TYPE":0,"CLASSIFICATION_TYPE":"U","NORAD_CAT_ID":55161,"ELEMENT_SET_NO":999,"REV_AT_EPOCH":15627,"BSTAR":0.0012475000000000001,"MEAN_MOTION_DOT":4.55e-06,"MEAN_MOTION_DDOT":0.0},{"OBJECT_NAME":"ONEWEB-0621","OBJECT_ID":"2023-004Y","EPOCH":"2026-04-05T05:24:53.949888","MEAN_MOTION":13.11413917,"ECCENTRICITY":0.0001597,"INCLINATION":87.8917,"RA_OF_ASC_NODE":35.5636,"ARG_OF_PERICENTER":81.4587,"MEAN_ANOMALY":278.6722,"EPHEMERIS_TYPE":0,"CLASSIFICATION_TYPE":"U","NORAD_CAT_ID":55162,"ELEMENT_SET_NO":999,"REV_AT_EPOCH":15624,"BSTAR":-3.2786e-05,"MEAN_MOTION_DOT":1e-08,"MEAN_MOTION_DDOT":0.0},{"OBJECT_NAME":"ONEWEB-0622","OBJECT_ID":"2023-004Z","EPOCH":"2026-04-05T05:32:13.765632","MEAN_MOTION":13.1141587,"ECCENTRICITY":0.000127,"INCLINATION":87.8915,"RA_OF_ASC_NODE":35.5643,"ARG_OF_PERICENTER":60.3494,"MEAN_ANOMALY":299.7761,"EPHEMERIS_TYPE":0,"CLASSIFICATION_TYPE":"U","NORAD_CAT_ID":55163,"ELEMENT_SET_NO":999,"REV_AT_EPOCH":15623,"BSTAR":-0.0005082999999999999,"MEAN_MOTION_DOT":-1.67e-06,"MEAN_MOTION_DDOT":0.0},{"OBJECT_NAME":"ONEWEB-0623","OBJECT_ID":"2023-004AA","EPOCH":"2026-04-05T04:41:21.124032","MEAN_MOTION":13.17650527,"ECCENTRICITY":0.0001064,"INCLINATION":87.9185,"RA_OF_ASC_NODE":20.3772,"ARG_OF_PERICENTER":85.5058,"MEAN_ANOMALY":274.6195,"EPHEMERIS_TYPE":0,"CLASSIFICATION_TYPE":"U","NORAD_CAT_ID":55164,"ELEMENT_SET_NO":999,"REV_AT_EPOCH":15797,"BSTAR":0.0005361200000000001,"MEAN_MOTION_DOT":2.21e-06,"MEAN_MOTION_DDOT":0.0},{"OBJECT_NAME":"ONEWEB-0624","OBJECT_ID":"2023-004AB","EPOCH":"2026-04-05T06:18:26.861760","MEAN_MOTION":13.12926261,"ECCENTRICITY":0.0001597,"INCLINATION":87.9013,"RA_OF_ASC_NODE":5.0804,"ARG_OF_PERICENTER":81.6523,"MEAN_ANOMALY":278.4787,"EPHEMERIS_TYPE":0,"CLASSIFICATION_TYPE":"U","NORAD_CAT_ID":55165,"ELEMENT_SET_NO":999,"REV_AT_EPOCH":15850,"BSTAR":0.00082787,"MEAN_MOTION_DOT":3.13e-06,"MEAN_MOTION_DDOT":0.0},{"OBJECT_NAME":"ONEWEB-0625","OBJECT_ID":"2023-004AC","EPOCH":"2026-04-05T06:16:05.083680","MEAN_MOTION":13.17649122,"ECCENTRICITY":0.0001955,"INCLINATION":87.9182,"RA_OF_ASC_NODE":20.3581,"ARG_OF_PERICENTER":83.0135,"MEAN_ANOMALY":277.1219,"EPHEMERIS_TYPE":0,"CLASSIFICATION_TYPE":"U","NORAD_CAT_ID":55166,"ELEMENT_SET_NO":999,"REV_AT_EPOCH":15797,"BSTAR":-0.00081391,"MEAN_MOTION_DOT":-3.03e-06,"MEAN_MOTION_DDOT":0.0},{"OBJECT_NAME":"ONEWEB-0626","OBJECT_ID":"2023-004AD","EPOCH":"2026-04-05T06:01:32.257920","MEAN_MOTION":13.17649857,"ECCENTRICITY":0.0002084,"INCLINATION":87.9183,"RA_OF_ASC_NODE":20.3601,"ARG_OF_PERICENTER":67.2829,"MEAN_ANOMALY":292.8523,"EPHEMERIS_TYPE":0,"CLASSIFICATION_TYPE":"U","NORAD_CAT_ID":55167,"ELEMENT_SET_NO":999,"REV_AT_EPOCH":15797,"BSTAR":0.00021857,"MEAN_MOTION_DOT":9.8e-07,"MEAN_MOTION_DDOT":0.0},{"OBJECT_NAME":"ONEWEB-0627","OBJECT_ID":"2023-004AE","EPOCH":"2026-04-05T05:44:29.843520","MEAN_MOTION":13.17648455,"ECCENTRICITY":0.0001282,"INCLINATION":87.9182,"RA_OF_ASC_NODE":20.3624,"ARG_OF_PERICENTER":83.317,"MEAN_ANOMALY":276.8107,"EPHEMERIS_TYPE":0,"CLASSIFICATION_TYPE":"U","NORAD_CAT_ID":55168,"ELEMENT_SET_NO":999,"REV_AT_EPOCH":15797,"BSTAR":0.00013443,"MEAN_MOTION_DOT":6.5e-07,"MEAN_MOTION_DDOT":0.0},{"OBJECT_NAME":"ONEWEB-0628","OBJECT_ID":"2023-004AF","EPOCH":"2026-04-05T07:02:44.730528","MEAN_MOTION":13.12444243,"ECCENTRICITY":0.0001126,"INCLINATION":87.9014,"RA_OF_ASC_NODE":5.1284,"ARG_OF_PERICENTER":92.3981,"MEAN_ANOMALY":267.7276,"EPHEMERIS_TYPE":0,"CLASSIFICATION_TYPE":"U","NORAD_CAT_ID":55169,"ELEMENT_SET_NO":999,"REV_AT_EPOCH":15847,"BSTAR":0.00022207,"MEAN_MOTION_DOT":9.3e-07,"MEAN_MOTION_DDOT":0.0}]