ONEWEB-0598             
1 55154U 23004Q   26095.22055008  .00000251  00000+0  67101-3 0  9998
2 55154  87.8904  35.5747 0002375  69.4210 290.7172 13.11416009156330
ONEWEB-0599             
1 55155U 23004R   26095.27805745  .00000068  00000+0  14112-3 0  9995
2 55155  87.9179  20.3446 0002019  79.7794 280.3565 13.17651160157887
ONEWEB-0614             
1 55156U 23004S   26095.29175837  .00000451  00000+0  12361-2 0  9999
2 55156  87.8904  35.5685 0001625  79.6138 280.5173 13.11414934156289
ONEWEB-0616             
1 55157U 23004T   26095.16837105  .00000018  00000+0  13099-4 0  9999
2 55157  87.9185  20.3690 0002640  91.7280 268.4154 13.17650611158085
ONEWEB-0617             
1 55158U 23004U   26095.27989980  .00000555  00000+0  15295-2 0  9995
2 55158  87.8917  35.5569 0001452  74.0531 286.0757 13.11417563156303
ONEWEB-0618             
1 55159U 23004V   26095.29734072  .00009600  00000+0  54937-3 0  9995
2 55159  86.9140 207.1890 0012198 193.2160 166.8762 15.12465227171241
ONEWEB-0619             
1 55160U 23004W   26095.27635887 -.00000306  00000+0 -82230-3 0  9992
2 55160  87.9193  20.3220 0001638  92.5386 267.5933 13.17649300157996
ONEWEB-0620             
1 55161U 23004X   26095.27480972  .00000455  00000+0  12475-2 0  9992
2 55161  87.8906  35.5713 0001901  70.6537 289.4797 13.11419059156272
ONEWEB-0621             
1 55162U 23004Y   26095.22562442  .00000001  00000+0 -32786-4 0  9998
2 55162  87.8917  35.5636 0001597  81.4587 278.6722 13.11413917156247
ONEWEB-0622             
1 55163U 23004Z   26095.23071488 -.00000167  00000+0 -50830-3 0  9998
2 55163  87.8915  35.5643 0001270  60.3494 299.7761 13.11415870156231
ONEWEB-0623             
1 55164U 23004AA  26095.19538338  .00000221  00000+0  53612-3 0  9996
2 55164  87.9185  20.3772 0001064  85.5058 274.6195 13.17650527157974
ONEWEB-0624             
1 55165U 23004AB  26095.26281090  .00000313  00000+0  82787-3 0  9992
2 55165  87.9013   5.0804 0001597  81.6523 278.4787 13.12926261158501
ONEWEB-0625             
1 55166U 23004AC  26095.26116995 -.00000303  00000+0 -81391-3 0  9995
2 55166  87.9182  20.3581 0001955  83.0135 277.1219 13.17649122157973
ONEWEB-0626             
1 55167U 23004AD  26095.25106780  .00000098  00000+0  21857-3 0  9996
2 55167  87.9183  20.3601 0002084  67.2829 292.8523 13.17649857157973
ONEWEB-0627             
1 55168U 23004AE  26095.23923430  .00000065  00000+0  13443-3 0  9990
2 55168  87.9182  20.3624 0001282  83.3170 276.8107 13.17648455157978
ONEWEB-0628             
1 55169U 23004AF  26095.29357327  .00000093  00000+0  22207-3 0  9992
2 55169  87.9014   5.1284 0001126  92.3981 267.7276 13.12444243158479
